{
  "61579": {
    "noradId": "61579",
    "tle": [
      "1 61579C 24187F   26002.82687500 -.00001830  00000+0 -15071-4 0    22",
      "2 61579  53.1568 260.6744 0001127  87.0091 118.1338 15.69710743    12"
    ]
  },
  "61580": {
    "noradId": "61580",
    "tle": [
      "1 61580C 24187G   26002.82479167 -.00010593  00000+0 -87244-4 0    29",
      "2 61580  53.1570 260.6276 0001220  80.8587 140.2313 15.69724733    15"
    ]
  },
  "61581": {
    "noradId": "61581",
    "tle": [
      "1 61581C 24187H   26002.82409722 -.00003118  00000+0 -25681-4 0    22",
      "2 61581  53.1569 261.3094 0001147  74.8772 169.4490 15.69717902    16"
    ]
  },
  "61582": {
    "noradId": "61582",
    "tle": [
      "1 61582C 24187J   26002.82687500 -.00011351  00000+0 -93480-4 0    25",
      "2 61582  53.1567 261.2384 0001177  86.2028 201.5636 15.69726340    16"
    ]
  },
  "61583": {
    "noradId": "61583",
    "tle": [
      "1 61583C 24187K   26002.82201389 -.00015303  00000+0 -12601-3 0    29",
      "2 61583  53.1567 261.2051 0001146  79.9531 208.0605 15.69732659    10"
    ]
  },
  "61584": {
    "noradId": "61584",
    "tle": [
      "1 61584C 24187L   26002.82618056 -.00022726  00000+0 -18715-3 0    22",
      "2 61584  53.1566 261.1275 0001326  79.3159 259.9916 15.69738528    18"
    ]
  },
  "61585": {
    "noradId": "61585",
    "tle": [
      "1 61585C 24187M   26002.82687500 -.00003100  00000+0 -25536-4 0    28",
      "2 61585  53.1566 261.0673 0001239 105.3075 265.6815 15.69714256    14"
    ]
  },
  "61586": {
    "noradId": "61586",
    "tle": [
      "1 61586C 24187N   26002.82201389 -.00009361  00000+0 -77096-4 0    29",
      "2 61586  53.1567 261.0343 0001210  75.4489 295.7785 15.69723839    12"
    ]
  },
  "61587": {
    "noradId": "61587",
    "tle": [
      "1 61587C 24187P   26002.79284722 -.00008214  00000+0 -27670-3 0    26",
      "2 61587  53.1584  11.0431 0001269  86.7751 340.2454 15.30217107    17"
    ]
  },
  "61588": {
    "noradId": "61588",
    "tle": [
      "1 61588C 24187Q   26002.79215278 -.00001815  00000+0 -61169-4 0    29",
      "2 61588  53.1594  11.2640 0001331  87.6241 230.8768 15.30193509    18"
    ]
  },
  "61589": {
    "noradId": "61589",
    "tle": [
      "1 61589C 24187R   26002.79354167  .00000671  00000+0  22616-4 0    22",
      "2 61589  53.1582 355.6697 0001294  86.4486 217.2321 15.30187359    19"
    ]
  },
  "61590": {
    "noradId": "61590",
    "tle": [
      "1 61590C 24187S   26002.79215278 -.00003388  00000+0 -11420-3 0    23",
      "2 61590  53.1604  11.4336 0001304  88.0649 137.3812 15.30193390    13"
    ]
  },
  "61591": {
    "noradId": "61591",
    "tle": [
      "1 61591C 24187T   26002.79354167 -.00001207  00000+0 -40686-4 0    20",
      "2 61591  53.1590 356.2432 0001271  86.8425 286.0047 15.30190460    13"
    ]
  },
  "61592": {
    "noradId": "61592",
    "tle": [
      "1 61592C 24187U   26002.79006944  .00005199  00000+0  17522-3 0    22",
      "2 61592  53.1578 355.6708 0001262  87.7224 202.6303 15.30185777    10"
    ]
  },
  "61593": {
    "noradId": "61593",
    "tle": [
      "1 61593C 24187V   26002.79423611  .00000782  00000+0  26367-4 0    28",
      "2 61593  53.1605   9.1650 0001458  86.1850 217.6325 15.30191453    12"
    ]
  },
  "61621": {
    "noradId": "61621",
    "tle": [
      "1 61621C 24191A   26002.79145833  .00009199  00000+0  33327-3 0    26",
      "2 61621  42.9994 166.4018 0001355 260.0596  10.4706 15.27560146    19"
    ]
  },
  "61622": {
    "noradId": "61622",
    "tle": [
      "1 61622C 24191B   26002.79423611  .00026236  00000+0  95083-3 0    28",
      "2 61622  42.9990 166.5241 0001430 255.2384 333.9130 15.27532555    17"
    ]
  },
  "61623": {
    "noradId": "61623",
    "tle": [
      "1 61623C 24191C   26002.79423611  .00000154  00000+0  55670-5 0    20",
      "2 61623  42.9994 170.1522 0001410 263.9847 257.1673 15.27567287    12"
    ]
  },
  "61624": {
    "noradId": "61624",
    "tle": [
      "1 61624C 24191D   26002.78729167 -.00006477  00000+0 -23471-3 0    23",
      "2 61624  43.0010 166.7182 0001404 273.1651 214.1644 15.27567396    18"
    ]
  },
  "61625": {
    "noradId": "61625",
    "tle": [
      "1 61625C 24191E   26002.79354167  .00001025  00000+0  37151-4 0    22",
      "2 61625  42.9992 166.4233 0001411 272.0589 355.7861 15.27564572    12"
    ]
  },
  "61626": {
    "noradId": "61626",
    "tle": [
      "1 61626C 24191F   26002.78798611  .00021032  00000+0  76132-3 0    29",
      "2 61626  43.0013 170.3429 0001190 272.5399 150.3955 15.27577708    16"
    ]
  },
  "61627": {
    "noradId": "61627",
    "tle": [
      "1 61627C 24191G   26002.78729167  .00006271  00000+0  22724-3 0    26",
      "2 61627  42.9994 159.2549 0001518 270.6489  77.7359 15.27557379    17"
    ]
  },
  "61628": {
    "noradId": "61628",
    "tle": [
      "1 61628C 24191H   26002.79423611  .00007041  00000+0  25517-3 0    22",
      "2 61628  43.0015 166.7637 0001655 275.3483 214.8519 15.27551630    19"
    ]
  },
  "61629": {
    "noradId": "61629",
    "tle": [
      "1 61629C 24191J   26002.79145833 -.00001595  00000+0 -57811-4 0    23",
      "2 61629  43.0004 166.6426 0001447 268.5623 262.9373 15.27560362    16"
    ]
  },
  "61630": {
    "noradId": "61630",
    "tle": [
      "1 61630C 24191K   26002.78798611  .00002997  00000+0  10861-3 0    20",
      "2 61630  43.0011 166.8965 0001721 272.8266 140.5067 15.27556388    16"
    ]
  },
  "61631": {
    "noradId": "61631",
    "tle": [
      "1 61631C 24191L   26002.79284722 -.00002884  00000+0 -10450-3 0    26",
      "2 61631  43.0005 170.2111 0001405 261.5963 230.6864 15.27569743    15"
    ]
  },
  "61632": {
    "noradId": "61632",
    "tle": [
      "1 61632C 24191M   26002.78798611  .00003218  00000+0  11662-3 0    29",
      "2 61632  43.0018 170.4442 0001616 273.5134 107.1128 15.27555198    16"
    ]
  },
  "61633": {
    "noradId": "61633",
    "tle": [
      "1 61633C 24191N   26002.79076389 -.00003141  00000+0 -11382-3 0    28",
      "2 61633  43.0011 170.2756 0001534 271.8260 187.7569 15.27567370    14"
    ]
  },
  "61634": {
    "noradId": "61634",
    "tle": [
      "1 61634C 24191P   26002.78798611 -.00000142  00000+0 -51556-5 0    24",
      "2 61634  43.0015 170.4766 0001640 272.6005  93.8709 15.27558663    14"
    ]
  }
}