OBJECT_NAME,OBJECT_ID,EPOCH,MEAN_MOTION,ECCENTRICITY,INCLINATION,RA_OF_ASC_NODE,ARG_OF_PERICENTER,MEAN_ANOMALY,EPHEMERIS_TYPE,CLASSIFICATION_TYPE,NORAD_CAT_ID,ELEMENT_SET_NO,REV_AT_EPOCH,BSTAR,MEAN_MOTION_DOT,MEAN_MOTION_DDOT,RMS,DATA_SOURCE
STARLINK-11275 [DTC],2024-187F,2026-01-02T19:50:42.000000,15.69710743,.0001127,53.1568,260.6744,87.0091,118.1338,0,C,61579,2,1,-.15071E-4,-.18295E-4,0,0.417,SpaceX-E
STARLINK-11342 [DTC],2024-187G,2026-01-02T19:47:42.000029,15.69724733,.000122,53.1570,260.6276,80.8587,140.2313,0,C,61580,2,1,-.87244E-4,-.10593E-3,0,0.507,SpaceX-E
STARLINK-11374 [DTC],2024-187H,2026-01-02T19:46:41.999981,15.69717902,.0001147,53.1569,261.3094,74.8772,169.4490,0,C,61581,2,1,-.25681E-4,-.31183E-4,0,0.461,SpaceX-E
STARLINK-11373 [DTC],2024-187J,2026-01-02T19:50:42.000000,15.69726340,.0001177,53.1567,261.2384,86.2028,201.5636,0,C,61582,2,1,-.9348E-4,-.11351E-3,0,0.492,SpaceX-E
STARLINK-11368 [DTC],2024-187K,2026-01-02T19:43:42.000010,15.69732659,.0001146,53.1567,261.2051,79.9531,208.0605,0,C,61583,2,1,-.12601E-3,-.15303E-3,0,0.558,SpaceX-E
STARLINK-11370 [DTC],2024-187L,2026-01-02T19:49:42.000038,15.69738528,.0001326,53.1566,261.1275,79.3159,259.9916,0,C,61584,2,1,-.18715E-3,-.22726E-3,0,0.472,SpaceX-E
STARLINK-11361 [DTC],2024-187M,2026-01-02T19:50:42.000000,15.69714256,.0001239,53.1566,261.0673,105.3075,265.6815,0,C,61585,2,1,-.25536E-4,-.31003E-4,0,0.521,SpaceX-E
STARLINK-11360 [DTC],2024-187N,2026-01-02T19:43:42.000010,15.69723839,.000121,53.1567,261.0343,75.4489,295.7785,0,C,61586,2,1,-.77096E-4,-.93614E-4,0,0.412,SpaceX-E
STARLINK-32353,2024-187P,2026-01-02T19:01:41.999981,15.30217107,.0001269,53.1584,11.0431,86.7751,340.2454,0,C,61587,2,1,-.2767E-3,-.82143E-4,0,0.880,SpaceX-E
STARLINK-32325,2024-187Q,2026-01-02T19:00:42.000019,15.30193509,.0001331,53.1594,11.2640,87.6241,230.8768,0,C,61588,2,1,-.61169E-4,-.18149E-4,0,0.343,SpaceX-E
STARLINK-32416,2024-187R,2026-01-02T19:02:42.000029,15.30187359,.0001294,53.1582,355.6697,86.4486,217.2321,0,C,61589,2,1,.22616E-4,.67095E-5,0,0.362,SpaceX-E
STARLINK-32413,2024-187S,2026-01-02T19:00:42.000019,15.30193390,.0001304,53.1604,11.4336,88.0649,137.3812,0,C,61590,2,1,-.1142E-3,-.33883E-4,0,0.413,SpaceX-E
STARLINK-32409,2024-187T,2026-01-02T19:02:42.000029,15.30190460,.0001271,53.1590,356.2432,86.8425,286.0047,0,C,61591,2,1,-.40686E-4,-.12071E-4,0,0.318,SpaceX-E
STARLINK-32422,2024-187U,2026-01-02T18:57:41.999962,15.30185777,.0001262,53.1578,355.6708,87.7224,202.6303,0,C,61592,2,1,.17522E-3,.51986E-4,0,0.355,SpaceX-E
STARLINK-32397,2024-187V,2026-01-02T19:03:41.999990,15.30191453,.0001458,53.1605,9.1650,86.1850,217.6325,0,C,61593,2,1,.26367E-4,.78233E-5,0,0.468,SpaceX-E
STARLINK-32302,2024-191A,2026-01-02T18:59:41.999971,15.27560146,.0001355,42.9994,166.4018,260.0596,10.4706,0,C,61621,2,1,.33327E-3,.91986E-4,0,0.340,SpaceX-E
STARLINK-32364,2024-191B,2026-01-02T19:03:41.999990,15.27532555,.000143,42.9990,166.5241,255.2384,333.9130,0,C,61622,2,1,.95083E-3,.26236E-3,0,0.270,SpaceX-E
STARLINK-32331,2024-191C,2026-01-02T19:03:41.999990,15.27567287,.000141,42.9994,170.1522,263.9847,257.1673,0,C,61623,2,1,.5567E-5,.15365E-5,0,0.419,SpaceX-E
STARLINK-32398,2024-191D,2026-01-02T18:53:42.000029,15.27567396,.0001404,43.0010,166.7182,273.1651,214.1644,0,C,61624,2,1,-.23471E-3,-.64768E-4,0,0.402,SpaceX-E
STARLINK-32365,2024-191E,2026-01-02T19:02:42.000029,15.27564572,.0001411,42.9992,166.4233,272.0589,355.7861,0,C,61625,2,1,.37151E-4,.10253E-4,0,0.373,SpaceX-E
STARLINK-32333,2024-191F,2026-01-02T18:54:41.999990,15.27577708,.000119,43.0013,170.3429,272.5399,150.3955,0,C,61626,2,1,.76132E-3,.21032E-3,0,0.263,SpaceX-E
STARLINK-32399,2024-191G,2026-01-02T18:53:42.000029,15.27557379,.0001518,42.9994,159.2549,270.6489,77.7359,0,C,61627,2,1,.22724E-3,.62711E-4,0,0.340,SpaceX-E
STARLINK-32421,2024-191H,2026-01-02T19:03:41.999990,15.27551630,.0001655,43.0015,166.7637,275.3483,214.8519,0,C,61628,2,1,.25517E-3,.70409E-4,0,0.395,SpaceX-E
STARLINK-32403,2024-191J,2026-01-02T18:59:41.999971,15.27560362,.0001447,43.0004,166.6426,268.5623,262.9373,0,C,61629,2,1,-.57811E-4,-.15952E-4,0,0.364,SpaceX-E
STARLINK-32390,2024-191K,2026-01-02T18:54:41.999990,15.27556388,.0001721,43.0011,166.8965,272.8266,140.5067,0,C,61630,2,1,.10861E-3,.2997E-4,0,0.422,SpaceX-E
STARLINK-32348,2024-191L,2026-01-02T19:01:41.999981,15.27569743,.0001405,43.0005,170.2111,261.5963,230.6864,0,C,61631,2,1,-.1045E-3,-.2884E-4,0,0.447,SpaceX-E
STARLINK-32455,2024-191M,2026-01-02T18:54:41.999990,15.27555198,.0001616,43.0018,170.4442,273.5134,107.1128,0,C,61632,2,1,.11662E-3,.32178E-4,0,0.413,SpaceX-E
STARLINK-32396,2024-191N,2026-01-02T18:58:42.000010,15.27567370,.0001534,43.0011,170.2756,271.8260,187.7569,0,C,61633,2,1,-.11382E-3,-.3141E-4,0,0.366,SpaceX-E
STARLINK-32355,2024-191P,2026-01-02T18:54:41.999990,15.27558663,.000164,43.0015,170.4766,272.6005,93.8709,0,C,61634,2,1,-.51556E-5,-.14226E-5,0,0.448,SpaceX-E
